*******************************************************************************
 Revised: July 31, 2013                  Earth                              399
 
 GEOPHYSICAL PROPERTIES (revised Aug 15, 2018):
  Vol. Mean Radius (km)    = 6371.01+-0.02   Mass x10^24 (kg)= 5.97219+-0.0006
  Equ. radius, km          = 6378.137        Mass layers:
  Polar axis, km           = 6356.752          Atmos         = 5.1   x 10^18 kg
  Flattening               = 1/298.257223563   oceans        = 1.4   x 10^21 kg
  Density, g/cm^3          = 5.51              crust         = 2.6   x 10^22 kg
  J2 (IERS 2010)           = 0.00108262545     mantle        = 4.043 x 10^24 kg
  g_p, m/s^2  (polar)      = 9.8321863685      outer core    = 1.835 x 10^24 kg
  g_e, m/s^2  (equatorial) = 9.7803267715      inner core    = 9.675 x 10^22 kg
  g_o, m/s^2               = 9.82022         Fluid core rad  = 3480 km
  GM, km^3/s^2             = 398600.435436   Inner core rad  = 1215 km
  GM 1-sigma, km^3/s^2     =      0.0014     Escape velocity = 11.186 km/s
  Rot. Rate (rad/s)        = 0.00007292115   Surface area:
  Mean sidereal day, hr    = 23.9344695944     land          = 1.48 x 10^8 km
  Mean solar day 2000.0, s = 86400.002         sea           = 3.62 x 10^8 km
  Mean solar day 1820.0, s = 86400.0         Love no., k2    = 0.299
  Moment of inertia        = 0.3308          Atm. pressure   = 1.0 bar
  Mean temperature, K      = 270             Volume, km^3    = 1.08321 x 10^12
  Mean effect. IR temp, K  = 255             Magnetic moment = 0.61 gauss Rp^3
  Geometric albedo         = 0.367           Vis. mag. V(1,0)= -3.86
  Solar Constant (W/m^2)   = 1367.6 (mean), 1414 (perihelion), 1322 (aphelion)
 HELIOCENTRIC ORBIT CHARACTERISTICS:
  Obliquity to orbit, deg  = 23.4392911  Sidereal orb period  = 1.0000174 y
  Orbital speed, km/s      = 29.79       Sidereal orb period  = 365.25636 d
  Mean daily motion, deg/d = 0.9856474   Hill's sphere radius = 234.9       
*******************************************************************************
 

 

*******************************************************************************
Ephemeris / WWW_USER Sat Mar  9 19:41:18 2019 Pasadena, USA      / Horizons    
*******************************************************************************
Target body name: Earth (399)                     {source: DE431mx}
Center body name: Solar System Barycenter (0)     {source: DE431mx}
Center-site name: BODY CENTER
*******************************************************************************
Start time      : A.D. 1970-Jan-01 00:00:00.0000 TDB
Stop  time      : A.D. 2100-Jan-01 00:00:00.0000 TDB
Step-size       : 1 calendar years
*******************************************************************************
Center geodetic : 0.00000000,0.00000000,0.0000000 {E-lon(deg),Lat(deg),Alt(km)}
Center cylindric: 0.00000000,0.00000000,0.0000000 {E-lon(deg),Dxy(km),Dz(km)}
Center radii    : (undefined)                                                  
Output units    : KM-S                                                         
Output type     : GEOMETRIC cartesian states
Output format   : 2 (position and velocity)
Reference frame : ICRF/J2000.0                                                 
Coordinate systm: Earth Mean Equator and Equinox of Reference Epoch            
*******************************************************************************
            JDTDB,            Calendar Date (TDB),                      X,                      Y,                      Z,                     VX,                     VY,                     VZ,
**************************************************************************************************************************************************************************************************
$$SOE
2463232.500000000, A.D. 2032-Jan-01 00:00:00.0000, -2.511069794950441E+07,  1.331980207384164E+08,  5.775411017747774E+07, -2.985311799452370E+01, -4.685127799723730E+00, -2.030405434816978E+00,
2463598.500000000, A.D. 2033-Jan-01 00:00:00.0000, -2.726573452300037E+07,  1.327118567049547E+08,  5.754788171703604E+07, -2.980228478814892E+01, -5.053818843684383E+00, -2.190714079992481E+00,
2463963.500000000, A.D. 2034-Jan-01 00:00:00.0000, -2.670949437857668E+07,  1.325125849141134E+08,  5.746384633752794E+07, -2.979642054533242E+01, -4.940368578283115E+00, -2.140284658916352E+00,
2464328.500000000, A.D. 2035-Jan-01 00:00:00.0000, -2.594296968824122E+07,  1.322764996493191E+08,  5.735768323272103E+07, -2.982359481163897E+01, -4.798249209054267E+00, -2.080889728528959E+00,
2464693.500000000, A.D. 2036-Jan-01 00:00:00.0000, -2.498403589339262E+07,  1.321164758174662E+08,  5.727997386992481E+07, -2.985063204172831E+01, -4.688496298145758E+00, -2.031278206393066E+00,
2465059.500000000, A.D. 2037-Jan-01 00:00:00.0000, -2.647176200732592E+07,  1.316975327662530E+08,  5.708669431964656E+07, -2.975711026969826E+01, -5.032386622030755E+00, -2.182513828341870E+00,
2465424.500000000, A.D. 2038-Jan-01 00:00:00.0000, -2.535668299540802E+07,  1.319209945138188E+08,  5.716971395855764E+07, -2.980367635019491E+01, -4.894385957753867E+00, -2.121210965986360E+00,
2465789.500000000, A.D. 2039-Jan-01 00:00:00.0000, -2.435053176899860E+07,  1.323078238933347E+08,  5.732677215595875E+07, -2.982498404131652E+01, -4.786663367441838E+00, -2.074642331001367E+00,
2466154.500000000, A.D. 2040-Jan-01 00:00:00.0000, -2.351473400088840E+07,  1.327957881522216E+08,  5.752962042345163E+07, -2.984201917901821E+01, -4.646482868507208E+00, -2.014672854478812E+00,
2466520.500000000, A.D. 2041-Jan-01 00:00:00.0000, -2.545741748574810E+07,  1.329108730580958E+08,  5.757761877761570E+07, -2.980364498339242E+01, -5.005700055449603E+00, -2.168197532220489E+00,
2466885.500000000, A.D. 2042-Jan-01 00:00:00.0000, -2.502454524113726E+07,  1.333731594562035E+08,  5.778036232315485E+07, -2.981325137090832E+01, -4.898126115748925E+00, -2.123767368044878E+00,
2467250.500000000, A.D. 2043-Jan-01 00:00:00.0000, -2.471912637638074E+07,  1.336993434893760E+08,  5.792884804337677E+07, -2.984472795658289E+01, -4.761846160261472E+00, -2.062383462620005E+00,
2467615.500000000, A.D. 2044-Jan-01 00:00:00.0000, -2.448490842638338E+07,  1.338484235152743E+08,  5.800481302744079E+07, -2.988397686947727E+01, -4.657216489717965E+00, -2.018451017204586E+00,
2467981.500000000, A.D. 2045-Jan-01 00:00:00.0000, -2.679384497901681E+07,  1.333806556940589E+08,  5.781214329637700E+07, -2.978828994885074E+01, -5.020269881541820E+00, -2.175204649600665E+00,
2468346.500000000, A.D. 2046-Jan-01 00:00:00.0000, -2.636412497624482E+07,  1.331984280256946E+08,  5.774239867270915E+07, -2.982279174552330E+01, -4.885094112267196E+00, -2.116434157454245E+00,
2468711.500000000, A.D. 2047-Jan-01 00:00:00.0000, -2.574359215109277E+07,  1.329506590302059E+08,  5.763793393768286E+07, -2.983980273205302E+01, -4.781490738784141E+00, -2.073016054862092E+00,
2469076.500000000, A.D. 2048-Jan-01 00:00:00.0000, -2.491573549130294E+07,  1.327482137303257E+08,  5.754903433393779E+07, -2.984027353675826E+01, -4.645397300294496E+00, -2.011971238684836E+00,
2469442.500000000, A.D. 2049-Jan-01 00:00:00.0000, -2.652440667776792E+07,  1.322995035983063E+08,  5.735002438795721E+07, -2.979345966166050E+01, -4.989871765994275E+00, -2.163822940638497E+00,
2469807.500000000, A.D. 2050-Jan-01 00:00:00.0000, -2.555288780821967E+07,  1.324405344188943E+08,  5.740436197024918E+07, -2.980297243501996E+01, -4.880549383015644E+00, -2.114264457900215E+00,
2470172.500000000, A.D. 2051-Jan-01 00:00:00.0000, -2.464745829599579E+07,  1.327258777015205E+08,  5.752374139667136E+07, -2.982638909606117E+01, -4.734518161649236E+00, -2.052019615263319E+00,
2470537.500000000, A.D. 2052-Jan-01 00:00:00.0000, -2.390342412033160E+07,  1.331050238012915E+08,  5.768570072800030E+07, -2.987410324537242E+01, -4.618127575202500E+00, -2.001578160484520E+00,
2470903.500000000, A.D. 2053-Jan-01 00:00:00.0000, -2.592050909695117E+07,  1.330643240568078E+08,  5.767119201025809E+07, -2.978887996032644E+01, -4.984362825643488E+00, -2.158996082146325E+00,
2471268.500000000, A.D. 2054-Jan-01 00:00:00.0000, -2.549119852729274E+07,  1.333783054573768E+08,  5.781320989286033E+07, -2.982880168836952E+01, -4.845112823620669E+00, -2.100392853704616E+00,
2471633.500000000, A.D. 2055-Jan-01 00:00:00.0000, -2.517981605798768E+07,  1.335483512528416E+08,  5.789657611301646E+07, -2.986271412717519E+01, -4.746777153682516E+00, -2.055431561761306E+00,
2471998.500000000, A.D. 2056-Jan-01 00:00:00.0000, -2.488661351878245E+07,  1.335269616892879E+08,  5.789807150256167E+07, -2.986434426041119E+01, -4.624211247367596E+00, -2.004343843911459E+00,
2472364.500000000, A.D. 2057-Jan-01 00:00:00.0000, -2.707657053454901E+07,  1.329393369197479E+08,  5.765173643035838E+07, -2.981250599000249E+01, -4.973552700456948E+00, -2.154253535963912E+00,
2472729.500000000, A.D. 2058-Jan-01 00:00:00.0000, -2.652742350881470E+07,  1.326439922267242E+08,  5.752863941847806E+07, -2.981983344173787E+01, -4.873152242494396E+00, -2.111578671299208E+00,
2473094.500000000, A.D. 2059-Jan-01 00:00:00.0000, -2.573118352207769E+07,  1.323211886814936E+08,  5.738573135880939E+07, -2.982534943746655E+01, -4.731901374601020E+00, -2.051114632951924E+00,
2473459.500000000, A.D. 2060-Jan-01 00:00:00.0000, -2.472503612668497E+07,  1.321120226992102E+08,  5.728792251346544E+07, -2.986467790145220E+01, -4.605892960658440E+00, -1.994990925744836E+00,
2473825.500000000, A.D. 2061-Jan-01 00:00:00.0000, -2.618430216300676E+07,  1.316690064982035E+08,  5.708360294316347E+07, -2.977641227802042E+01, -4.969026144572338E+00, -2.154804022933853E+00,
2474190.500000000, A.D. 2062-Jan-01 00:00:00.0000, -2.503775911844986E+07,  1.318608428194755E+08,  5.715323818884048E+07, -2.980584244212135E+01, -4.819579899593700E+00, -2.087663854859255E+00,
